{
  "type": "FeatureCollection",
  "features": [
    {
      "type": "Feature",
      "properties": {
        "norad_id": 31805,
        "name": "FENGYUN 1C DEB",
        "group": "fengyun-1c-debris",
        "lat": 79.85325185463536,
        "lon": -162.06695400906833,
        "alt_km": 855.5794078293466,
        "timestamp": "2025-12-03T17:47:51.001506+00:00",
        "meta_object_name": "FENGYUN 1C DEB",
        "meta_object_id": "1999-025CGT",
        "meta_epoch": "2025-12-01T05:23:40.108128",
        "meta_mean_motion": 14.02670631,
        "meta_eccentricity": 0.0447098,
        "meta_inclination": 98.3662,
        "meta_ra_of_asc_node": 320.3008,
        "meta_arg_of_pericenter": 191.6465,
        "meta_mean_anomaly": 167.4086,
        "meta_ephemeris_type": 0,
        "meta_classification_type": "U",
        "meta_norad_cat_id": 31805,
        "meta_element_set_no": 999,
        "meta_rev_at_epoch": 62202,
        "meta_bstar": 0.0013339,
        "meta_mean_motion_dot": 4.977e-05,
        "meta_mean_motion_ddot": 0,
        "tle_line1": "1 31805U 99025CGT 25335.22476977  .00004977  00000+0  13339-2 0  9991",
        "tle_line2": "2 31805  98.3662 320.3008 0447098 191.6465 167.4086 14.02670631622027"
      },
      "geometry": {
        "type": "Point",
        "coordinates": [
          -162.06695400906833,
          79.85325185463536
        ]
      }
    },
    {
      "type": "Feature",
      "properties": {
        "norad_id": 31807,
        "name": "FENGYUN 1C DEB",
        "group": "fengyun-1c-debris",
        "lat": -79.57084327698763,
        "lon": -132.31567995522587,
        "alt_km": 707.1213975401415,
        "timestamp": "2025-12-03T17:47:51.001520+00:00",
        "meta_object_name": "FENGYUN 1C DEB",
        "meta_object_id": "1999-025CGV",
        "meta_epoch": "2025-11-30T02:34:40.844352",
        "meta_mean_motion": 14.51863719,
        "meta_eccentricity": 0.01055298,
        "meta_inclination": 99.076,
        "meta_ra_of_asc_node": 104.0405,
        "meta_arg_of_pericenter": 200.3476,
        "meta_mean_anomaly": 159.3497,
        "meta_ephemeris_type": 0,
        "meta_classification_type": "U",
        "meta_norad_cat_id": 31807,
        "meta_element_set_no": 999,
        "meta_rev_at_epoch": 65122,
        "meta_bstar": 0.0012552682,
        "meta_mean_motion_dot": 5.383e-05,
        "meta_mean_motion_ddot": 0,
        "tle_line1": "1 31807U 99025CGV 25334.10741718  .00005383  00000+0  12553-2 0  9996",
        "tle_line2": "2 31807  99.0760 104.0405 0105529 200.3476 159.3497 14.51863719651229"
      },
      "geometry": {
        "type": "Point",
        "coordinates": [
          -132.31567995522587,
          -79.57084327698763
        ]
      }
    },
    {
      "type": "Feature",
      "properties": {
        "norad_id": 31808,
        "name": "FENGYUN 1C DEB",
        "group": "fengyun-1c-debris",
        "lat": 17.80193094185005,
        "lon": -13.229721598932942,
        "alt_km": 678.2107716782684,
        "timestamp": "2025-12-03T17:47:51.001530+00:00",
        "meta_object_name": "FENGYUN 1C DEB",
        "meta_object_id": "1999-025CGW",
        "meta_epoch": "2025-12-03T07:09:51.542208",
        "meta_mean_motion": 14.56458132,
        "meta_eccentricity": 0.0037987,
        "meta_inclination": 99.2042,
        "meta_ra_of_asc_node": 163.2972,
        "meta_arg_of_pericenter": 170.223,
        "meta_mean_anomaly": 189.9712,
        "meta_ephemeris_type": 0,
        "meta_classification_type": "U",
        "meta_norad_cat_id": 31808,
        "meta_element_set_no": 999,
        "meta_rev_at_epoch": 57465,
        "meta_bstar": 0.0070427,
        "meta_mean_motion_dot": 0.00031692,
        "meta_mean_motion_ddot": 0,
        "tle_line1": "1 31808U 99025CGW 25337.29851322  .00031692  00000+0  70427-2 0  9999",
        "tle_line2": "2 31808  99.2042 163.2972 0037987 170.2230 189.9712 14.56458132574650"
      },
      "geometry": {
        "type": "Point",
        "coordinates": [
          -13.229721598932942,
          17.80193094185005
        ]
      }
    },
    {
      "type": "Feature",
      "properties": {
        "norad_id": 31810,
        "name": "FENGYUN 1C DEB",
        "group": "fengyun-1c-debris",
        "lat": -5.043203468444164,
        "lon": -5.917094221424105,
        "alt_km": 894.2644195718649,
        "timestamp": "2025-12-03T17:47:51.001540+00:00",
        "meta_object_name": "FENGYUN 1C DEB",
        "meta_object_id": "1999-025CGY",
        "meta_epoch": "2025-12-02T18:34:02.794944",
        "meta_mean_motion": 14.45755419,
        "meta_eccentricity": 0.02141225,
        "meta_inclination": 98.2699,
        "meta_ra_of_asc_node": 352.4032,
        "meta_arg_of_pericenter": 170.6735,
        "meta_mean_anomaly": 189.8534,
        "meta_ephemeris_type": 0,
        "meta_classification_type": "U",
        "meta_norad_cat_id": 31810,
        "meta_element_set_no": 999,
        "meta_rev_at_epoch": 64270,
        "meta_bstar": 0.00070820977,
        "meta_mean_motion_dot": 3.284e-05,
        "meta_mean_motion_ddot": 0,
        "tle_line1": "1 31810U 99025CGY 25336.77364346  .00003284  00000+0  70821-3 0  9994",
        "tle_line2": "2 31810  98.2699 352.4032 0214122 170.6735 189.8534 14.45755419642700"
      },
      "geometry": {
        "type": "Point",
        "coordinates": [
          -5.917094221424105,
          -5.043203468444164
        ]
      }
    },
    {
      "type": "Feature",
      "properties": {
        "norad_id": 31813,
        "name": "FENGYUN 1C DEB",
        "group": "fengyun-1c-debris",
        "lat": 29.848137539753182,
        "lon": -118.31907520927268,
        "alt_km": 808.1019840831441,
        "timestamp": "2025-12-03T17:47:51.001550+00:00",
        "meta_object_name": "FENGYUN 1C DEB",
        "meta_object_id": "1999-025CHB",
        "meta_epoch": "2025-12-03T00:32:58.175520",
        "meta_mean_motion": 14.49726248,
        "meta_eccentricity": 0.01366901,
        "meta_inclination": 99.4283,
        "meta_ra_of_asc_node": 55.4063,
        "meta_arg_of_pericenter": 2.4724,
        "meta_mean_anomaly": 357.7113,
        "meta_ephemeris_type": 0,
        "meta_classification_type": "U",
        "meta_norad_cat_id": 31813,
        "meta_element_set_no": 999,
        "meta_rev_at_epoch": 97115,
        "meta_bstar": 0.00051301891,
        "meta_mean_motion_dot": 2.164e-05,
        "meta_mean_motion_ddot": 0,
        "tle_line1": "1 31813U 99025CHB 25337.02289555  .00002164  00000+0  51302-3 0  9993",
        "tle_line2": "2 31813  99.4283  55.4063 0136690   2.4724 357.7113 14.49726248971157"
      },
      "geometry": {
        "type": "Point",
        "coordinates": [
          -118.31907520927268,
          29.848137539753182
        ]
      }
    },
    {
      "type": "Feature",
      "properties": {
        "norad_id": 31814,
        "name": "FENGYUN 1C DEB",
        "group": "fengyun-1c-debris",
        "lat": 47.572706940651486,
        "lon": -141.63175572087,
        "alt_km": 1054.3811392787975,
        "timestamp": "2025-12-03T17:47:51.001560+00:00",
        "meta_object_name": "FENGYUN 1C DEB",
        "meta_object_id": "1999-025CHC",
        "meta_epoch": "2025-11-24T20:29:55.792608",
        "meta_mean_motion": 13.66443116,
        "meta_eccentricity": 0.0229144,
        "meta_inclination": 99.5736,
        "meta_ra_of_asc_node": 18.9365,
        "meta_arg_of_pericenter": 261.41,
        "meta_mean_anomaly": 96.1022,
        "meta_ephemeris_type": 0,
        "meta_classification_type": "U",
        "meta_norad_cat_id": 31814,
        "meta_element_set_no": 999,
        "meta_rev_at_epoch": 61555,
        "meta_bstar": 0.00071428,
        "meta_mean_motion_dot": 6.63e-06,
        "meta_mean_motion_ddot": 0,
        "tle_line1": "1 31814U 99025CHC 25328.85411797  .00000663  00000+0  71428-3 0  9993",
        "tle_line2": "2 31814  99.5736  18.9365 0229144 261.4100  96.1022 13.66443116615553"
      },
      "geometry": {
        "type": "Point",
        "coordinates": [
          -141.63175572087,
          47.572706940651486
        ]
      }
    },
    {
      "type": "Feature",
      "properties": {
        "norad_id": 31815,
        "name": "FENGYUN 1C DEB",
        "group": "fengyun-1c-debris",
        "lat": -4.784519237078393,
        "lon": -34.96717380530414,
        "alt_km": 835.2585225222374,
        "timestamp": "2025-12-03T17:47:51.001571+00:00",
        "meta_object_name": "FENGYUN 1C DEB",
        "meta_object_id": "1999-025CHD",
        "meta_epoch": "2025-12-03T05:54:03.885120",
        "meta_mean_motion": 14.1027738,
        "meta_eccentricity": 0.0059653,
        "meta_inclination": 98.7675,
        "meta_ra_of_asc_node": 323.8095,
        "meta_arg_of_pericenter": 48.8072,
        "meta_mean_anomaly": 311.8221,
        "meta_ephemeris_type": 0,
        "meta_classification_type": "U",
        "meta_norad_cat_id": 31815,
        "meta_element_set_no": 999,
        "meta_rev_at_epoch": 95405,
        "meta_bstar": 0.00011622,
        "meta_mean_motion_dot": 1.67e-06,
        "meta_mean_motion_ddot": 0,
        "tle_line1": "1 31815U 99025CHD 25337.24587830  .00000167  00000+0  11622-3 0  9998",
        "tle_line2": "2 31815  98.7675 323.8095 0059653  48.8072 311.8221 14.10277380954053"
      },
      "geometry": {
        "type": "Point",
        "coordinates": [
          -34.96717380530414,
          -4.784519237078393
        ]
      }
    }
  ]
}